{"fetched_at":"2026-03-29T16:36:15Z","count":15609,"tles":[{"name":"STARLINK-31032","line1":"1 58535U 23192E   26087.93902975  .00000682  00000+0  35184-4 0  9990","line2":"2 58535  53.1608 333.2497 0001365  92.7236 267.3920 15.30185347128935","category":"Starlink"}]}